#dP2020 10 17  0  0  0.00000000      97 __u+U IGS14 FIT  IAC
## 2127 518400.00000000   900.00000000 59139 0.0000000000000
+  123   C01C02C03C04C05C06C07C08C09C10C11C12C13C14C16C19C20
+        C21C22C23C24C25C26C27C28C29C30C32C33C34C35C36C37C38
+        C39C40C43C44C45C46C60E01E02E03E04E05E07E08E09E11E12
+        E13E14E15E18E19E21E24E25E26E27E30E31E33E36G01G02G03
+        G04G05G06G07G08G09G10G11G12G13G15G16G17G18G19G20G21
+        G22G23G24G25G26G27G28G29G30G31G32J01J02J03J07R01R02
+        R03R04R05R07R08R09R11R12R13R14R15R16R17R18R19R20R21
+        R22R23R24R26  0  0  0  0  0  0  0  0  0  0  0  0  0
++        13  0 13 14 13  8  8  8  8  8  7  7  7  7  8  7  7
++         7  7  7  7  7  7  7  7  8  7  7  7  7  8  8  8 12
++         9 10  9  8  9 10 13  4  4  4  3  4  4  4  4  4  4
++         4  4  4  4  4  4  4  4  4  4  4  4  4  4  3  3  3
++         3  3  3  3  3  3  3  3  3  3  3  3  3  3  3  3  3
++         3  3  3  3  3  3  3  3  3  3  3  9  8  9 13  6  5
++         5  5  5  5  5  5  5  5  6  5  5  6  5  5  6  6  5
++         6  5  5  8  0  0  0  0  0  0  0  0  0  0  0  0  0
%c M  cc GPS ccc cccc cccc cccc cccc ccccc ccccc ccccc ccccc
%c cc cc ccc ccc cccc cccc cccc cccc ccccc ccccc ccccc ccccc
%f  1.2500000  1.025000000  0.00000000000  0.000000000000000
%f  0.0000000  0.000000000  0.00000000000  0.000000000000000
%i    0    0    0    0      0      0      0      0         0
%i    0    0    0    0      0      0      0      0         0
/* INFORMATION & ANALYSIS CENTER (IAC)            FINAL DATA
/* S/V CLOCKS ARE ALIGNED TO GNSS TIME                      
/* G:C1WC2W R:C1PC2P E:C1XC5X C:C2IC6I J:C1CC2S             
/* PCV:IGS14_2118 OL/AL:FES2004  NONE     YN ORB:CoN CLK:CoN
*  2020 10 17  4  0  0.00000000
PC01 -34311.032217  24447.216241   -496.428450   -662.798680
PC02   4487.643235  41942.117691   1002.402277 999999.999999
PC03 -14838.997509  39476.863015    982.535294    802.603515
PC04 -39616.895169  14360.726549   -236.930502   -188.589241
PC05  21891.309956  36028.103685   1212.222063   -121.227641
PC06 -14122.987352  37506.838817  14215.124587     52.697205
PC07 -13179.070466  22731.591017 -32718.377595   -106.391182
PC08 -25221.526067  26076.024374  21247.953078   -613.483841
PC09  -5274.332690  42032.593736  -1105.887922    877.836767
PC10   2737.307420  29302.858826 -29832.714984   -162.389877
PC11 -15695.655118   -367.460147 -23002.455504   -689.838653
PC12  -7108.250902 -19246.140666 -18897.567507    560.168787
PC13 -11156.344565  27347.834082  30048.901832    699.313707
PC14 -22380.730831  -9264.701586  13921.387733    -14.091681
PC16 -11363.314887  39152.652032  11215.172965   -596.832865
PC19  19436.297550    159.820972 -20003.164659    584.569961
PC20  21852.372199  15972.067999  -6726.985128   -862.612835
PC21 -11296.948110 -22966.727367 -11136.136971   -698.709560
PC22   5682.862422 -16189.565403 -22019.379920   -775.046658
PC23 -16452.289222  15677.870591 -16179.963461   -895.659303
PC24 -21620.276549  -6850.870373  16245.037540   -720.872133
PC25 -26908.417976   7338.730253   -451.106021   -793.893159
PC26  -4805.141239 -15451.815680  22733.240053    869.762747
PC27    666.581928  25249.076383  11862.393847    416.975582
PC28 -11748.934472  24685.667075  -5557.093268   -157.332355
PC29  16893.271508 -10347.323984  19651.401137    298.415269
PC30  12911.171830  10963.877803  22178.579429    390.747973
PC32  11414.942522  22879.976321  11174.318162   -902.894072
PC33 -19518.832629   -144.762145  19945.505563   -813.448203
PC34 -13202.133727 -10364.020574 -22297.320035   -830.371732
PC35  11038.365696 -24955.392121   5774.467865   -604.094067
PC36  27122.258500  -6568.093566    231.362944   -874.159699
PC37   3660.443780  15735.571240 -22728.182926   -895.871082
PC38 -20953.724998  28180.185026  23230.052079    106.609121
PC39  -6799.335948  40783.749770   8559.691513     23.933613
PC40   -466.792533  25543.809246 -33469.192225     91.649181
PC43 -17071.339719   9825.143837 -19777.387871   -420.035888
PC44  -1448.109912 -25289.849396 -11683.065797   -164.905429
PC45  16400.240940 -15667.633021  16284.234226    258.068861
PC46  22151.886501   6225.326948 -15798.971695    588.933794
PC60   7328.195490  41512.097247   -559.833518     -0.198744
PE01 -27778.707109    797.815158 -10178.276335   -963.008351
PE02  27748.115077   -885.913546  10295.726234    169.484544
PE03  16996.109790  -2852.190123 -24072.206603   -354.600335
PE04  -6825.994879  22022.326154  18560.170064   -628.678774
PE05  17341.002079  18280.606644 -15534.638162   -337.233075
PE07  -7556.973905 -28556.619912  -1999.888252   -449.718051
PE08   6402.707580 -22236.150887 -18472.081341   6105.425741
PE09   7816.333038  28477.687972   1882.790515   5896.247381
PE11  -1707.644530  21660.957542  20096.585463   6288.829477
PE12 -17836.689251  23361.168146   3529.618106   5552.841311
PE13   1948.348242 -21765.377962 -19964.982871    404.644255
PE14  -2363.323453  26507.775915  -3140.528597  -1192.962705
PE15  17672.474489 -23464.589727  -3672.423658    848.088800
PE18  -9254.167110 -26830.836589 -11527.863463  -1303.118856
PE19 -17473.045651    245.995961  23889.401211    104.968389
PE21 -26076.539674 -11361.977771   8198.697590   -627.037078
PE24   8537.889298  17383.250526 -22392.908627   -533.380991
PE25  26006.706189  11425.600188  -8314.071023   -518.405480
PE26 -15388.865590  -6940.735062 -24309.216803   2604.225897
PE27  -9115.557385 -17279.849155  22247.319490    112.091514
PE30  13778.828607 -12714.895295  22909.066615   3499.453601
PE31 -13089.976036  13003.871857 -23129.180520   -474.923994
PE33 -22993.864904  11372.323077 -14759.596510   -462.815226
PE36  14916.219176   7273.102165  24515.810889    493.464006
PG01   9085.544805 -19014.133400 -16197.702027    815.065309
PG02 -21538.405521  15326.585685  -1768.281456   -530.584016
PG03  -2043.745570 -16800.446109 -20576.833722   -328.339961
PG04    971.860012 -26371.884594  -2796.032965   -146.044836
PG05 -18436.856122   5863.061784  18124.779498    -23.590085
PG06 -21642.250294   2376.581880 -15182.457845   -333.645140
PG07  -8188.720372 -13207.940997  21856.269829   -395.017544
PG08   6744.448728 -22265.200660  12575.099310    -51.708171
PG09  -8160.318752 -23750.655180   8560.536639   -301.173048
PG10  24012.987632  11678.175947     80.841322   -481.608990
PG11  10671.522470 -24396.112696  -3065.602031   -134.806569
PG12  -1230.091205  16017.805508 -21411.083485     53.045643
PG13 -12938.463568  15011.087845  17498.332364     55.497520
PG15  -4293.964872  23328.913198  11219.820225   -196.432011
PG16  17853.421507  -4330.582429  19127.073842   -223.471823
PG17 -13694.945113  -9143.156267 -20420.901660    340.894548
PG18   8809.200039  12287.214946  21828.094892    308.127732
PG19 -14823.726307  -1636.458627 -22266.501279    -90.775202
PG20  18584.353189  15110.482127  11669.723396    526.371212
PG21  20363.270067 -16705.299146   -866.177008     58.552133
PG22   6395.661172 -14405.129424 -21178.862093   -742.342851
PG23  18897.088221  15999.038378   9607.682819     86.866293
PG24 -10923.415913  20425.409550 -12858.277186    -19.877529
PG25  11822.211834  18052.610348 -15898.369594      6.597737
PG26  24633.132747   3191.930423   9704.001066    296.531477
PG27  12505.097643 -12162.030207  19775.138536   -420.185582
PG28 -22938.442989 -13103.090849  -1079.159243    666.785448
PG29   4270.725025  25370.177312   6464.362300   -217.121868
PG30 -17073.736855  -6134.048796  19516.421770   -321.327345
PG31  23011.037390  -3635.559969 -13230.919259    -75.451235
PG32  14938.388311   8454.774053 -20220.934223    358.383956
PJ01 -25592.985781  22264.851459  30015.638135   -340.113593
PJ02 -31970.891394  15806.197264 -17941.859885     -5.266719
PJ03 -22620.949172  31207.788443 -12469.212833     -2.056156
PJ07 -25382.301104  33655.578221     40.538224      0.082112
PR01  -3887.965086 -19501.152235 -15990.092405     69.175565
PR02 -15273.858932 -19912.954863   4420.405459    450.270412
PR03 -15442.880269  -7138.479093  19018.318460     23.919213
PR04  -6687.540453   9358.358206  22786.743427     58.259835
PR05   5701.743330  20732.497883  13745.466081     59.414685
PR07  15287.764113   6706.978088 -19275.220091    -40.831645
PR08   6781.858526  -9390.367030 -22678.346555    -55.215001
PR09  16865.294441   7578.557749 -17517.011633      2.699290
PR11  18467.031204  -8585.134467  15349.168379    -41.384163
PR12   1763.960048 -11031.112387  22965.787836    172.448885
PR13 -16692.853508  -7390.263072  17807.434493    -45.344236
PR14 -25440.101465    501.860726   1921.712648     56.684486
PR15 -19243.735816   8030.323573 -14664.858584    106.991820
PR16   -510.284374  11192.301153 -22926.100497     -7.323119
PR17 -13174.267613   4356.829828 -21382.483967    366.718362
PR18 -14534.167625  18715.116572  -9483.646714     52.987337
PR19  -9065.085817  22819.182548   6885.123235   -115.738317
PR20   3584.448547  13267.657956  21504.565060   -424.335141
PR21  13475.720786  -5483.130126  20963.734358   -159.569769
PR22  14371.113850 -19273.967586   8384.287965    -77.900830
PR23   4227.175953 -21151.828070 -13632.110928    338.861344
PR24  -4563.993389 -12832.516211 -21556.141917     17.142418
PR26    349.400088  17343.162949  18697.080558   -363.377504
EOF
